STARLINK-1237
1 25192C 20012Q   21325.12516968  .00007055  00000-0  47286-3 0  3257
2 25192  53.0523 252.6750 0001815  67.6828 242.7916 15.06376288    18
